SES-2                   
1 37809U 11049A   26087.52754662 -.00000215  00000+0  00000+0 0  9999
2 37809   0.0499  66.1934 0002844 296.2806 286.3762  1.00271903 53152
QUETZSAT 1              
1 37826U 11054A   26087.52945330 -.00000261  00000+0  00000+0 0  9999
2 37826   0.0381  48.3277 0002757 324.9092 286.2959  1.00272405 49062
SES-4                   
1 38087U 12007A   26087.32647981 -.00000188  00000+0  00000+0 0  9995
2 38087   0.0329  63.3796 0002232 310.2546 267.6426  1.00271438 51416
SES-5                   
1 38652U 12036A   26087.36225583  .00000013  00000+0  00000+0 0  9995
2 38652   0.0634 304.1475 0002051  49.3865 327.6149  1.00267091 43641
ASTRA 2F                
1 38778U 12051A   26087.55034006  .00000130  00000+0  00000+0 0  9990
2 38778   0.0576 252.6175 0001923  30.8109 128.8235  1.00272113 40322
SES-6                   
1 39172U 13026A   26087.46541245 -.00000281  00000+0  00000+0 0  9998
2 39172   0.0370 306.6884 0002069  78.4169 287.8074  1.00270591 46912
O3B FM5                 
1 39188U 13031A   26087.08443740 -.00000029  00000+0  00000+0 0  9990
2 39188   0.1013   7.8394 0003249 349.0661   3.0879  5.00116427232981
O3B FM4                 
1 39189U 13031B   26086.40408870 -.00000028  00000+0  00000+0 0  9990
2 39189   0.0535 345.5776 0005069  27.4764 346.9547  5.00115128232954
O3B FM2                 
1 39190U 13031C   26087.46918703 -.00000029  00000+0  00000+0 0  9991
2 39190   0.0527 338.9684 0002806  25.6513 355.3782  5.00115944233063
O3B PFM                 
1 39191U 13031D   26080.88691880 -.00000015  00000+0  00000+0 0  9990
2 39191   0.0686   5.4871 0005325  11.7167 342.8128  5.00116261232296
ASTRA 2E                
1 39285U 13056A   26087.61745517  .00000131  00000+0  00000+0 0  9994
2 39285   0.0742  32.3707 0002390 330.0924  74.3603  1.00268742 45607
SES-8                   
1 39460U 13071A   26087.61461301 -.00000289  00000+0  00000+0 0  9997
2 39460   0.0227 253.1515 0002000 135.4420 113.6835  1.00271740 43633
ASTRA 5B                
1 39617U 14011B   26087.54938673  .00000117  00000+0  00000+0 0  9998
2 39617   0.0883 299.4413 0003655  41.2408  66.5570  1.00269015 43850
O3B FM3                 
1 40079U 14038A   26086.35059271 -.00000028  00000+0  00000+0 0  9999
2 40079   0.0529 354.5796 0000866  77.5671 287.8583  5.00115572208951
O3B FM7                 
1 40080U 14038B   26087.49603088 -.00000029  00000+0  00000+0 0  9999
2 40080   0.0574 348.2906 0004272   6.5670   5.1333  5.00115569213846
O3B FM6                 
1 40081U 14038C   26087.52303053 -.00000029  00000+0  00000+0 0  9993
2 40081   0.0541 351.7652 0002640  13.3857 354.8471  5.00115666213786
O3B FM8                 
1 40082U 14038D   26087.37644398 -.00000029  00000+0  00000+0 0  9997
2 40082   0.0547 351.0058 0002678  17.8266 351.1676  5.00115959213906
